[{"OBJECT_NAME":"OBJECT C","OBJECT_ID":"2024-085C","EPOCH":"2026-03-09T22:49:58.289376","MEAN_MOTION":15.31893958,"ECCENTRICITY":0.00283931,"INCLINATION":97.3357,"RA_OF_ASC_NODE":145.6975,"ARG_OF_PERICENTER":37.3887,"MEAN_ANOMALY":322.9323,"EPHEMERIS_TYPE":0,"CLASSIFICATION_TYPE":"U","NORAD_CAT_ID":59679,"ELEMENT_SET_NO":999,"REV_AT_EPOCH":10244,"BSTAR":0.00039740634,"MEAN_MOTION_DOT":0.0001232,"MEAN_MOTION_DDOT":0},{"OBJECT_NAME":"STARLINK-32480","OBJECT_ID":"2024-216H","EPOCH":"2026-03-09T21:18:41.922144","MEAN_MOTION":15.27594973,"ECCENTRICITY":0.00015091,"INCLINATION":42.9995,"RA_OF_ASC_NODE":255.4018,"ARG_OF_PERICENTER":272.9262,"MEAN_ANOMALY":87.1417,"EPHEMERIS_TYPE":0,"CLASSIFICATION_TYPE":"U","NORAD_CAT_ID":62039,"ELEMENT_SET_NO":999,"REV_AT_EPOCH":7274,"BSTAR":0.0010294265,"MEAN_MOTION_DOT":0.00028187,"MEAN_MOTION_DDOT":0}]
